[{"OBJECT_NAME":"COSMOS 2251 DEB","OBJECT_ID":"1993-036AKP","EPOCH":"2026-03-02T15:30:57.560256","MEAN_MOTION":14.60900724,"ECCENTRICITY":0.0141839,"INCLINATION":74.0399,"RA_OF_ASC_NODE":147.4576,"ARG_OF_PERICENTER":216.4172,"MEAN_ANOMALY":142.7284,"EPHEMERIS_TYPE":0,"CLASSIFICATION_TYPE":"U","NORAD_CAT_ID":35445,"ELEMENT_SET_NO":999,"REV_AT_EPOCH":88495,"BSTAR":0.0020412,"MEAN_MOTION_DOT":0.00011508,"MEAN_MOTION_DDOT":0},{"OBJECT_NAME":"COSMOS 2251 DEB","OBJECT_ID":"1993-036AKQ","EPOCH":"2026-03-01T23:20:13.060032","MEAN_MOTION":14.54724849,"ECCENTRICITY":0.0076967,"INCLINATION":74.0476,"RA_OF_ASC_NODE":168.36,"ARG_OF_PERICENTER":266.8185,"MEAN_ANOMALY":92.417,"EPHEMERIS_TYPE":0,"CLASSIFICATION_TYPE":"U","NORAD_CAT_ID":35446,"ELEMENT_SET_NO":999,"REV_AT_EPOCH":89160,"BSTAR":0.00012977,"MEAN_MOTION_DOT":5.46e-6,"MEAN_MOTION_DDOT":0},{"OBJECT_NAME":"COSMOS 2251 DEB","OBJECT_ID":"1993-036AKS","EPOCH":"2026-03-02T14:51:49.226400","MEAN_MOTION":14.55032296,"ECCENTRICITY":0.0010118,"INCLINATION":73.9038,"RA_OF_ASC_NODE":297.1553,"ARG_OF_PERICENTER":101.8186,"MEAN_ANOMALY":258.4111,"EPHEMERIS_TYPE":0,"CLASSIFICATION_TYPE":"U","NORAD_CAT_ID":35448,"ELEMENT_SET_NO":999,"REV_AT_EPOCH":88496,"BSTAR":0.00088762,"MEAN_MOTION_DOT":3.801e-5,"MEAN_MOTION_DDOT":0},{"OBJECT_NAME":"COSMOS 2251 DEB","OBJECT_ID":"1993-036AKV","EPOCH":"2026-03-02T14:31:42.314304","MEAN_MOTION":15.48165639,"ECCENTRICITY":0.0032941,"INCLINATION":73.9259,"RA_OF_ASC_NODE":288.6015,"ARG_OF_PERICENTER":156.0423,"MEAN_ANOMALY":204.2331,"EPHEMERIS_TYPE":0,"CLASSIFICATION_TYPE":"U","NORAD_CAT_ID":35451,"ELEMENT_SET_NO":999,"REV_AT_EPOCH":68636,"BSTAR":0.0017807,"MEAN_MOTION_DOT":0.00096796,"MEAN_MOTION_DDOT":0},{"OBJECT_NAME":"COSMOS 2251 DEB","OBJECT_ID":"1993-036AKX","EPOCH":"2026-02-22T06:34:48.461664","MEAN_MOTION":14.38296689,"ECCENTRICITY":0.00667285,"INCLINATION":73.9969,"RA_OF_ASC_NODE":248.3507,"ARG_OF_PERICENTER":2.7472,"MEAN_ANOMALY":357.4034,"EPHEMERIS_TYPE":0,"CLASSIFICATION_TYPE":"U","NORAD_CAT_ID":35453,"ELEMENT_SET_NO":999,"REV_AT_EPOCH":87247,"BSTAR":0.00052426014,"MEAN_MOTION_DOT":1.61e-5,"MEAN_MOTION_DDOT":0},{"OBJECT_NAME":"COSMOS 2251 DEB","OBJECT_ID":"1993-036AKZ","EPOCH":"2026-03-02T15:04:27.463296","MEAN_MOTION":14.50137642,"ECCENTRICITY":0.010173,"INCLINATION":74.0281,"RA_OF_ASC_NODE":144.727,"ARG_OF_PERICENTER":231.0729,"MEAN_ANOMALY":128.1331,"EPHEMERIS_TYPE":0,"CLASSIFICATION_TYPE":"U","NORAD_CAT_ID":35455,"ELEMENT_SET_NO":999,"REV_AT_EPOCH":87701,"BSTAR":0.0010196,"MEAN_MOTION_DOT":4.204e-5,"MEAN_MOTION_DDOT":0},{"OBJECT_NAME":"COSMOS 2251 DEB","OBJECT_ID":"1993-036ALA","EPOCH":"2026-02-20T04:38:28.038048","MEAN_MOTION":14.71150691,"ECCENTRICITY":0.00640619,"INCLINATION":73.9541,"RA_OF_ASC_NODE":342.0246,"ARG_OF_PERICENTER":176.9842,"MEAN_ANOMALY":183.1729,"EPHEMERIS_TYPE":0,"CLASSIFICATION_TYPE":"U","NORAD_CAT_ID":35456,"ELEMENT_SET_NO":999,"REV_AT_EPOCH":66896,"BSTAR":0.0011354014,"MEAN_MOTION_DOT":7.191e-5,"MEAN_MOTION_DDOT":0},{"OBJECT_NAME":"COSMOS 2251 DEB","OBJECT_ID":"1993-036ALD","EPOCH":"2026-02-28T05:50:07.481760","MEAN_MOTION":14.37611865,"ECCENTRICITY":0.0017967,"INCLINATION":73.8706,"RA_OF_ASC_NODE":43.2127,"ARG_OF_PERICENTER":326.5251,"MEAN_ANOMALY":33.4765,"EPHEMERIS_TYPE":0,"CLASSIFICATION_TYPE":"U","NORAD_CAT_ID":35459,"ELEMENT_SET_NO":999,"REV_AT_EPOCH":59475,"BSTAR":0.00028955,"MEAN_MOTION_DOT":8.43e-6,"MEAN_MOTION_DDOT":0},{"OBJECT_NAME":"COSMOS 2251 DEB","OBJECT_ID":"1993-036ALG","EPOCH":"2026-03-02T11:28:02.472096","MEAN_MOTION":14.30041703,"ECCENTRICITY":0.00827897,"INCLINATION":74.0357,"RA_OF_ASC_NODE":123.7856,"ARG_OF_PERICENTER":141.5288,"MEAN_ANOMALY":219.1805,"EPHEMERIS_TYPE":0,"CLASSIFICATION_TYPE":"U","NORAD_CAT_ID":35462,"ELEMENT_SET_NO":999,"REV_AT_EPOCH":67520,"BSTAR":0.0013139411,"MEAN_MOTION_DOT":3.497e-5,"MEAN_MOTION_DDOT":0},{"OBJECT_NAME":"COSMOS 2251 DEB","OBJECT_ID":"1993-036ALK","EPOCH":"2026-02-25T23:29:56.832000","MEAN_MOTION":14.44579996,"ECCENTRICITY":0.00647733,"INCLINATION":73.9965,"RA_OF_ASC_NODE":56.6665,"ARG_OF_PERICENTER":202.3242,"MEAN_ANOMALY":157.5094,"EPHEMERIS_TYPE":0,"CLASSIFICATION_TYPE":"U","NORAD_CAT_ID":35465,"ELEMENT_SET_NO":999,"REV_AT_EPOCH":88328,"BSTAR":0.00031427596,"MEAN_MOTION_DOT":1.087e-5,"MEAN_MOTION_DDOT":0},{"OBJECT_NAME":"COSMOS 2251 DEB","OBJECT_ID":"1993-036ALP","EPOCH":"2026-03-02T03:30:23.391648","MEAN_MOTION":14.49900853,"ECCENTRICITY":0.00767715,"INCLINATION":74.0143,"RA_OF_ASC_NODE":234.6003,"ARG_OF_PERICENTER":8.7549,"MEAN_ANOMALY":351.4929,"EPHEMERIS_TYPE":0,"CLASSIFICATION_TYPE":"U","NORAD_CAT_ID":35469,"ELEMENT_SET_NO":999,"REV_AT_EPOCH":89262,"BSTAR":0.00010289112,"MEAN_MOTION_DOT":3.83e-6,"MEAN_MOTION_DDOT":0},{"OBJECT_NAME":"COSMOS 2251 DEB","OBJECT_ID":"1993-036ALV","EPOCH":"2026-03-02T12:57:08.671680","MEAN_MOTION":14.71831598,"ECCENTRICITY":0.0016309,"INCLINATION":74.0239,"RA_OF_ASC_NODE":10.5709,"ARG_OF_PERICENTER":64.6167,"MEAN_ANOMALY":295.6691,"EPHEMERIS_TYPE":0,"CLASSIFICATION_TYPE":"U","NORAD_CAT_ID":35475,"ELEMENT_SET_NO":999,"REV_AT_EPOCH":66790,"BSTAR":0.0023643,"MEAN_MOTION_DOT":0.00014817,"MEAN_MOTION_DDOT":0},{"OBJECT_NAME":"COSMOS 2251 DEB","OBJECT_ID":"1993-036ALW","EPOCH":"2026-03-02T15:47:26.287296","MEAN_MOTION":14.78136648,"ECCENTRICITY":0.0016621,"INCLINATION":73.9746,"RA_OF_ASC_NODE":263.6945,"ARG_OF_PERICENTER":232.3989,"MEAN_ANOMALY":195.2774,"EPHEMERIS_TYPE":0,"CLASSIFICATION_TYPE":"U","NORAD_CAT_ID":35476,"ELEMENT_SET_NO":999,"REV_AT_EPOCH":89067,"BSTAR":0.0017198,"MEAN_MOTION_DOT":0.00012468,"MEAN_MOTION_DDOT":0},{"OBJECT_NAME":"COSMOS 2251 DEB","OBJECT_ID":"1993-036ALX","EPOCH":"2026-03-02T15:12:44.322048","MEAN_MOTION":13.84237208,"ECCENTRICITY":0.0278732,"INCLINATION":73.9019,"RA_OF_ASC_NODE":42.8201,"ARG_OF_PERICENTER":32.3618,"MEAN_ANOMALY":329.4263,"EPHEMERIS_TYPE":0,"CLASSIFICATION_TYPE":"U","NORAD_CAT_ID":35580,"ELEMENT_SET_NO":999,"REV_AT_EPOCH":63362,"BSTAR":0.0021886,"MEAN_MOTION_DOT":3.278e-5,"MEAN_MOTION_DDOT":0},{"OBJECT_NAME":"COSMOS 2251 DEB","OBJECT_ID":"1993-036AMA","EPOCH":"2026-03-02T11:08:46.971456","MEAN_MOTION":13.55553573,"ECCENTRICITY":0.0381148,"INCLINATION":73.9155,"RA_OF_ASC_NODE":82.7978,"ARG_OF_PERICENTER":92.3821,"MEAN_ANOMALY":272.0971,"EPHEMERIS_TYPE":0,"CLASSIFICATION_TYPE":"U","NORAD_CAT_ID":35583,"ELEMENT_SET_NO":999,"REV_AT_EPOCH":83492,"BSTAR":0.00092091773,"MEAN_MOTION_DOT":1.002e-5,"MEAN_MOTION_DDOT":0},{"OBJECT_NAME":"COSMOS 2251 DEB","OBJECT_ID":"1993-036AMC","EPOCH":"2026-03-02T09:59:38.960160","MEAN_MOTION":13.75547614,"ECCENTRICITY":0.03073059,"INCLINATION":73.97,"RA_OF_ASC_NODE":215.3587,"ARG_OF_PERICENTER":111.2398,"MEAN_ANOMALY":282.8722,"EPHEMERIS_TYPE":0,"CLASSIFICATION_TYPE":"U","NORAD_CAT_ID":35585,"ELEMENT_SET_NO":999,"REV_AT_EPOCH":65159,"BSTAR":0.0024527249,"MEAN_MOTION_DOT":3.316e-5,"MEAN_MOTION_DDOT":0},{"OBJECT_NAME":"COSMOS 2251 DEB","OBJECT_ID":"1993-036AMD","EPOCH":"2026-03-02T13:25:37.759584","MEAN_MOTION":13.52179228,"ECCENTRICITY":0.0403278,"INCLINATION":74.0205,"RA_OF_ASC_NODE":174.6034,"ARG_OF_PERICENTER":32.7225,"MEAN_ANOMALY":344.3851,"EPHEMERIS_TYPE":0,"CLASSIFICATION_TYPE":"U","NORAD_CAT_ID":35586,"ELEMENT_SET_NO":999,"REV_AT_EPOCH":61461,"BSTAR":0.00042485,"MEAN_MOTION_DOT":4.47e-6,"MEAN_MOTION_DDOT":0},{"OBJECT_NAME":"COSMOS 2251 DEB","OBJECT_ID":"1993-036AME","EPOCH":"2026-02-28T05:57:10.477152","MEAN_MOTION":14.71790283,"ECCENTRICITY":0.0099796,"INCLINATION":74.0013,"RA_OF_ASC_NODE":267.4326,"ARG_OF_PERICENTER":75.2926,"MEAN_ANOMALY":285.9281,"EPHEMERIS_TYPE":0,"CLASSIFICATION_TYPE":"U","NORAD_CAT_ID":35587,"ELEMENT_SET_NO":999,"REV_AT_EPOCH":67486,"BSTAR":0.00022219,"MEAN_MOTION_DOT":1.466e-5,"MEAN_MOTION_DDOT":0},{"OBJECT_NAME":"COSMOS 2251 DEB","OBJECT_ID":"1993-036AML","EPOCH":"2026-03-02T15:26:28.373280","MEAN_MOTION":14.26069769,"ECCENTRICITY":0.0100532,"INCLINATION":74.0863,"RA_OF_ASC_NODE":144.5854,"ARG_OF_PERICENTER":132.1867,"MEAN_ANOMALY":228.7872,"EPHEMERIS_TYPE":0,"CLASSIFICATION_TYPE":"U","NORAD_CAT_ID":35593,"ELEMENT_SET_NO":999,"REV_AT_EPOCH":86204,"BSTAR":0.00087218,"MEAN_MOTION_DOT":2.174e-5,"MEAN_MOTION_DDOT":0},{"OBJECT_NAME":"COSMOS 2251 DEB","OBJECT_ID":"1993-036AMM","EPOCH":"2026-03-01T16:05:01.843872","MEAN_MOTION":14.90523898,"ECCENTRICITY":0.00270604,"INCLINATION":73.8074,"RA_OF_ASC_NODE":306.5851,"ARG_OF_PERICENTER":40.2978,"MEAN_ANOMALY":320.0201,"EPHEMERIS_TYPE":0,"CLASSIFICATION_TYPE":"U","NORAD_CAT_ID":35594,"ELEMENT_SET_NO":999,"REV_AT_EPOCH":89360,"BSTAR":0.0014510589,"MEAN_MOTION_DOT":0.00014268,"MEAN_MOTION_DDOT":0},{"OBJECT_NAME":"COSMOS 2251 DEB","OBJECT_ID":"1993-036AMV","EPOCH":"2026-03-02T20:15:55.411776","MEAN_MOTION":15.39102234,"ECCENTRICITY":0.0078567,"INCLINATION":73.9957,"RA_OF_ASC_NODE":9.3913,"ARG_OF_PERICENTER":52.8926,"MEAN_ANOMALY":339.1226,"EPHEMERIS_TYPE":0,"CLASSIFICATION_TYPE":"U","NORAD_CAT_ID":35602,"ELEMENT_SET_NO":999,"REV_AT_EPOCH":91322,"BSTAR":0.00070906,"MEAN_MOTION_DOT":0.0003068,"MEAN_MOTION_DDOT":0},{"OBJECT_NAME":"COSMOS 2251 DEB","OBJECT_ID":"1993-036AMZ","EPOCH":"2026-03-02T12:05:04.440768","MEAN_MOTION":13.41325411,"ECCENTRICITY":0.04554541,"INCLINATION":73.8056,"RA_OF_ASC_NODE":243.6582,"ARG_OF_PERICENTER":76.5381,"MEAN_ANOMALY":288.6042,"EPHEMERIS_TYPE":0,"CLASSIFICATION_TYPE":"U","NORAD_CAT_ID":35606,"ELEMENT_SET_NO":999,"REV_AT_EPOCH":62109,"BSTAR":0.00070081436,"MEAN_MOTION_DOT":7.0e-6,"MEAN_MOTION_DDOT":0},{"OBJECT_NAME":"COSMOS 2251 DEB","OBJECT_ID":"1993-036ANE","EPOCH":"2026-03-02T06:43:27.806016","MEAN_MOTION":14.75451376,"ECCENTRICITY":0.00163856,"INCLINATION":74.0206,"RA_OF_ASC_NODE":23.902,"ARG_OF_PERICENTER":80.0996,"MEAN_ANOMALY":280.2026,"EPHEMERIS_TYPE":0,"CLASSIFICATION_TYPE":"U","NORAD_CAT_ID":35611,"ELEMENT_SET_NO":999,"REV_AT_EPOCH":88462,"BSTAR":0.0030329092,"MEAN_MOTION_DOT":0.00020696,"MEAN_MOTION_DDOT":0}]
